{"fetched_at":"2026-07-16T06:42:33.601Z","source":"https://celestrak.org/NORAD/elements/gp.php?GROUP=oneweb&FORMAT=JSON","constellation":"oneweb","records":[{"OBJECT_NAME":"ONEWEB-0504","OBJECT_ID":"2022-138K","EPOCH":"2026-07-15T18:53:17.886912","CLASSIFICATION_TYPE":"U","MEAN_MOTION":13.19726344,"ECCENTRICITY":0.0001888,"INCLINATION":87.9193,"RA_OF_ASC_NODE":299.2728,"ARG_OF_PERICENTER":107.495,"MEAN_ANOMALY":252.6389,"EPHEMERIS_TYPE":0,"NORAD_CAT_ID":54122,"ELEMENT_SET_NO":999,"REV_AT_EPOCH":18060,"BSTAR":0.000063314008,"MEAN_MOTION_DOT":3.8e-7,"MEAN_MOTION_DDOT":0},{"OBJECT_NAME":"ONEWEB-0505","OBJECT_ID":"2022-138L","EPOCH":"2026-07-15T18:48:43.450272","CLASSIFICATION_TYPE":"U","MEAN_MOTION":13.19724764,"ECCENTRICITY":0.00019949,"INCLINATION":87.9191,"RA_OF_ASC_NODE":299.2741,"ARG_OF_PERICENTER":114.4553,"MEAN_ANOMALY":245.6788,"EPHEMERIS_TYPE":0,"NORAD_CAT_ID":54123,"ELEMENT_SET_NO":999,"REV_AT_EPOCH":18058,"BSTAR":-0.00033304605,"MEAN_MOTION_DOT":-0.0000012,"MEAN_MOTION_DDOT":0},{"OBJECT_NAME":"ONEWEB-0506","OBJECT_ID":"2022-138M","EPOCH":"2026-07-15T20:01:33.031776","CLASSIFICATION_TYPE":"U","MEAN_MOTION":13.1972578,"ECCENTRICITY":0.00020165,"INCLINATION":87.9196,"RA_OF_ASC_NODE":299.2612,"ARG_OF_PERICENTER":110.651,"MEAN_ANOMALY":249.4839,"EPHEMERIS_TYPE":0,"NORAD_CAT_ID":54124,"ELEMENT_SET_NO":999,"REV_AT_EPOCH":18058,"BSTAR":0.00022809232,"MEAN_MOTION_DOT":0.00000104,"MEAN_MOTION_DDOT":0},{"OBJECT_NAME":"ONEWEB-0507","OBJECT_ID":"2022-138N","EPOCH":"2026-07-15T18:41:55.179168","CLASSIFICATION_TYPE":"U","MEAN_MOTION":13.19727017,"ECCENTRICITY":0.0002067,"INCLINATION":87.9186,"RA_OF_ASC_NODE":299.2819,"ARG_OF_PERICENTER":106.3579,"MEAN_ANOMALY":253.7781,"EPHEMERIS_TYPE":0,"NORAD_CAT_ID":54125,"ELEMENT_SET_NO":999,"REV_AT_EPOCH":18062,"BSTAR":0.00019505,"MEAN_MOTION_DOT":9.1e-7,"MEAN_MOTION_DDOT":0},{"OBJECT_NAME":"ONEWEB-0508","OBJECT_ID":"2022-138P","EPOCH":"2026-07-15T20:26:33.463680","CLASSIFICATION_TYPE":"U","MEAN_MOTION":13.19725957,"ECCENTRICITY":0.00022695,"INCLINATION":87.9185,"RA_OF_ASC_NODE":299.267,"ARG_OF_PERICENTER":110.9306,"MEAN_ANOMALY":249.207,"EPHEMERIS_TYPE":0,"NORAD_CAT_ID":54126,"ELEMENT_SET_NO":999,"REV_AT_EPOCH":18061,"BSTAR":0.000080984425,"MEAN_MOTION_DOT":4.5e-7,"MEAN_MOTION_DDOT":0},{"OBJECT_NAME":"ONEWEB-0509","OBJECT_ID":"2022-138Q","EPOCH":"2026-07-15T16:11:48.117408","CLASSIFICATION_TYPE":"U","MEAN_MOTION":13.19724296,"ECCENTRICITY":0.00020338,"INCLINATION":87.9196,"RA_OF_ASC_NODE":299.2945,"ARG_OF_PERICENTER":105.3571,"MEAN_ANOMALY":254.7787,"EPHEMERIS_TYPE":0,"NORAD_CAT_ID":54127,"ELEMENT_SET_NO":999,"REV_AT_EPOCH":18056,"BSTAR":-0.000091353273,"MEAN_MOTION_DOT":-2.4e-7,"MEAN_MOTION_DDOT":0},{"OBJECT_NAME":"ONEWEB-0510","OBJECT_ID":"2022-138R","EPOCH":"2026-07-15T05:42:24.028704","CLASSIFICATION_TYPE":"U","MEAN_MOTION":13.20769836,"ECCENTRICITY":0.00020176,"INCLINATION":87.9186,"RA_OF_ASC_NODE":268.8469,"ARG_OF_PERICENTER":86.7304,"MEAN_ANOMALY":273.406,"EPHEMERIS_TYPE":0,"NORAD_CAT_ID":54128,"ELEMENT_SET_NO":999,"REV_AT_EPOCH":18298,"BSTAR":0.00011523509,"MEAN_MOTION_DOT":6e-7,"MEAN_MOTION_DDOT":0},{"OBJECT_NAME":"ONEWEB-0511","OBJECT_ID":"2022-138S","EPOCH":"2026-07-15T17:56:25.076544","CLASSIFICATION_TYPE":"U","MEAN_MOTION":13.19723615,"ECCENTRICITY":0.00017441,"INCLINATION":87.9191,"RA_OF_ASC_NODE":299.2818,"ARG_OF_PERICENTER":104.017,"MEAN_ANOMALY":256.1157,"EPHEMERIS_TYPE":0,"NORAD_CAT_ID":54129,"ELEMENT_SET_NO":999,"REV_AT_EPOCH":18060,"BSTAR":-0.000072836651,"MEAN_MOTION_DOT":-1.6e-7,"MEAN_MOTION_DDOT":0},{"OBJECT_NAME":"ONEWEB-0512","OBJECT_ID":"2022-138T","EPOCH":"2026-07-15T19:34:13.281600","CLASSIFICATION_TYPE":"U","MEAN_MOTION":13.19726538,"ECCENTRICITY":0.00019008,"INCLINATION":87.9185,"RA_OF_ASC_NODE":299.2713,"ARG_OF_PERICENTER":111.1718,"MEAN_ANOMALY":248.9618,"EPHEMERIS_TYPE":0,"NORAD_CAT_ID":54130,"ELEMENT_SET_NO":999,"REV_AT_EPOCH":18058,"BSTAR":-0.00015322752,"MEAN_MOTION_DOT":-4.8e-7,"MEAN_MOTION_DDOT":0},{"OBJECT_NAME":"ONEWEB-0513","OBJECT_ID":"2022-138U","EPOCH":"2026-07-15T19:25:21.540576","CLASSIFICATION_TYPE":"U","MEAN_MOTION":13.20269619,"ECCENTRICITY":0.00016145,"INCLINATION":87.9193,"RA_OF_ASC_NODE":299.2133,"ARG_OF_PERICENTER":127.7465,"MEAN_ANOMALY":232.3814,"EPHEMERIS_TYPE":0,"NORAD_CAT_ID":54131,"ELEMENT_SET_NO":999,"REV_AT_EPOCH":18049,"BSTAR":-0.000062256058,"MEAN_MOTION_DOT":-1.2e-7,"MEAN_MOTION_DDOT":0},{"OBJECT_NAME":"ONEWEB-0514","OBJECT_ID":"2022-138V","EPOCH":"2026-07-15T18:07:48.059904","CLASSIFICATION_TYPE":"U","MEAN_MOTION":13.19726519,"ECCENTRICITY":0.00019621,"INCLINATION":87.9194,"RA_OF_ASC_NODE":299.2794,"ARG_OF_PERICENTER":97.2755,"MEAN_ANOMALY":262.8601,"EPHEMERIS_TYPE":0,"NORAD_CAT_ID":54132,"ELEMENT_SET_NO":999,"REV_AT_EPOCH":18059,"BSTAR":-0.000025293221,"MEAN_MOTION_DOT":3e-8,"MEAN_MOTION_DDOT":0},{"OBJECT_NAME":"ONEWEB-0515","OBJECT_ID":"2022-138W","EPOCH":"2026-07-15T18:06:39.398688","CLASSIFICATION_TYPE":"U","MEAN_MOTION":13.20772231,"ECCENTRICITY":0.00027663,"INCLINATION":87.919,"RA_OF_ASC_NODE":268.7392,"ARG_OF_PERICENTER":86.1331,"MEAN_ANOMALY":274.0118,"EPHEMERIS_TYPE":0,"NORAD_CAT_ID":54133,"ELEMENT_SET_NO":999,"REV_AT_EPOCH":18307,"BSTAR":0.00017073541,"MEAN_MOTION_DOT":8.2e-7,"MEAN_MOTION_DDOT":0},{"OBJECT_NAME":"ONEWEB-0516","OBJECT_ID":"2022-138X","EPOCH":"2026-07-15T19:20:34.691712","CLASSIFICATION_TYPE":"U","MEAN_MOTION":13.19723856,"ECCENTRICITY":0.00021581,"INCLINATION":87.9187,"RA_OF_ASC_NODE":299.2735,"ARG_OF_PERICENTER":102.9619,"MEAN_ANOMALY":257.1755,"EPHEMERIS_TYPE":0,"NORAD_CAT_ID":54134,"ELEMENT_SET_NO":999,"REV_AT_EPOCH":18060,"BSTAR":-0.00013614534,"MEAN_MOTION_DOT":-4.2e-7,"MEAN_MOTION_DDOT":0},{"OBJECT_NAME":"ONEWEB-0517","OBJECT_ID":"2022-138Y","EPOCH":"2026-07-15T18:51:01.392192","CLASSIFICATION_TYPE":"U","MEAN_MOTION":13.19726093,"ECCENTRICITY":0.00017151,"INCLINATION":87.9193,"RA_OF_ASC_NODE":299.2722,"ARG_OF_PERICENTER":97.8383,"MEAN_ANOMALY":262.2945,"EPHEMERIS_TYPE":0,"NORAD_CAT_ID":54135,"ELEMENT_SET_NO":999,"REV_AT_EPOCH":18060,"BSTAR":0.000068364287,"MEAN_MOTION_DOT":4e-7,"MEAN_MOTION_DDOT":0},{"OBJECT_NAME":"ONEWEB-0518","OBJECT_ID":"2022-138Z","EPOCH":"2026-07-15T19:18:18.781056","CLASSIFICATION_TYPE":"U","MEAN_MOTION":13.1972298,"ECCENTRICITY":0.00022794,"INCLINATION":87.9183,"RA_OF_ASC_NODE":299.2759,"ARG_OF_PERICENTER":99.5016,"MEAN_ANOMALY":260.6374,"EPHEMERIS_TYPE":0,"NORAD_CAT_ID":54136,"ELEMENT_SET_NO":999,"REV_AT_EPOCH":18060,"BSTAR":0.00028277063,"MEAN_MOTION_DOT":0.00000126,"MEAN_MOTION_DDOT":0},{"OBJECT_NAME":"ONEWEB-0519","OBJECT_ID":"2022-138AA","EPOCH":"2026-07-15T19:54:41.400576","CLASSIFICATION_TYPE":"U","MEAN_MOTION":13.19723777,"ECCENTRICITY":0.00018404,"INCLINATION":87.9193,"RA_OF_ASC_NODE":299.2639,"ARG_OF_PERICENTER":99.5149,"MEAN_ANOMALY":260.6191,"EPHEMERIS_TYPE":0,"NORAD_CAT_ID":54137,"ELEMENT_SET_NO":999,"REV_AT_EPOCH":18061,"BSTAR":0.000002656168,"MEAN_MOTION_DOT":1.4e-7,"MEAN_MOTION_DDOT":0}]}
