ONEWEB-0504             
1 54122U 22138K   26196.78701258  .00000038  00000+0  63314-4 0  9993
2 54122  87.9193 299.2728 0001888 107.4950 252.6389 13.19726344180603
ONEWEB-0505             
1 54123U 22138L   26196.78383623 -.00000120  00000+0 -33305-3 0  9996
2 54123  87.9191 299.2741 0001994 114.4553 245.6788 13.19724764180588
ONEWEB-0506             
1 54124U 22138M   26196.83441009  .00000104  00000+0  22809-3 0  9993
2 54124  87.9196 299.2612 0002016 110.6510 249.4839 13.19725780180586
ONEWEB-0507             
1 54125U 22138N   26196.77911087  .00000091  00000+0  19505-3 0  9999
2 54125  87.9186 299.2819 0002067 106.3579 253.7781 13.19727017180622
ONEWEB-0508             
1 54126U 22138P   26196.85177620  .00000045  00000+0  80984-4 0  9995
2 54126  87.9185 299.2670 0002269 110.9306 249.2070 13.19725957180611
ONEWEB-0509             
1 54127U 22138Q   26196.67486247 -.00000024  00000+0 -91353-4 0  9995
2 54127  87.9196 299.2945 0002033 105.3571 254.7787 13.19724296180565
ONEWEB-0510             
1 54128U 22138R   26196.23777811  .00000060  00000+0  11524-3 0  9997
2 54128  87.9186 268.8469 0002017  86.7304 273.4060 13.20769836182987
ONEWEB-0511             
1 54129U 22138S   26196.74751246 -.00000016  00000+0 -72837-4 0  9996
2 54129  87.9191 299.2818 0001744 104.0170 256.1157 13.19723615180606
ONEWEB-0512             
1 54130U 22138T   26196.81543150 -.00000048  00000+0 -15323-3 0  9990
2 54130  87.9185 299.2713 0001900 111.1718 248.9618 13.19726538180581
ONEWEB-0513             
1 54131U 22138U   26196.80927709 -.00000012  00000+0 -62256-4 0  9995
2 54131  87.9193 299.2133 0001614 127.7465 232.3814 13.20269619180490
ONEWEB-0514             
1 54132U 22138V   26196.75541736  .00000003  00000+0 -25293-4 0  9991
2 54132  87.9194 299.2794 0001962  97.2755 262.8601 13.19726519180592
ONEWEB-0515             
1 54133U 22138W   26196.75462267  .00000082  00000+0  17074-3 0  9996
2 54133  87.9190 268.7392 0002766  86.1331 274.0118 13.20772231183072
ONEWEB-0516             
1 54134U 22138X   26196.80595708 -.00000042  00000+0 -13615-3 0  9995
2 54134  87.9187 299.2735 0002158 102.9619 257.1755 13.19723856180602
ONEWEB-0517             
1 54135U 22138Y   26196.78543278  .00000040  00000+0  68364-4 0  9996
2 54135  87.9193 299.2722 0001715  97.8383 262.2945 13.19726093180608
ONEWEB-0518             
1 54136U 22138Z   26196.80438404  .00000126  00000+0  28277-3 0  9997
2 54136  87.9183 299.2759 0002279  99.5016 260.6374 13.19722980180605
ONEWEB-0519             
1 54137U 22138AA  26196.82964584  .00000014  00000+0  26562-5 0  9996
2 54137  87.9193 299.2639 0001840  99.5149 260.6191 13.19723777180617
